{
  "norad_id": 60295,
  "name": "STARLINK-32126",
  "history": [
    {
      "epoch": "2026-04-15T15:28:21.775008Z",
      "apogee_km": 476.01966760868254,
      "perigee_km": 474.45435698427355,
      "latitude_deg": -2.1437276951737524e-06,
      "longitude_deg": 165.21387153007322,
      "height_km": 476.06445233363377,
      "semi_major_axis_km": 6853.374012296477,
      "eccentricity": 0.0001142,
      "inclination_deg": 53.1601,
      "raan_deg": 241.1084,
      "arg_perigee_deg": 84.808,
      "mean_anomaly_deg": 275.3051,
      "mean_motion_rev_day": 15.30192651
    },
    {
      "epoch": "2026-04-16T19:41:18.923424Z",
      "apogee_km": 475.98274467440933,
      "perigee_km": 474.4708926160165,
      "latitude_deg": 3.342631112569843e-06,
      "longitude_deg": 95.3569746874397,
      "height_km": 476.0243562383913,
      "semi_major_axis_km": 6853.363818645213,
      "eccentricity": 0.0001103,
      "inclination_deg": 53.16,
      "raan_deg": 235.6484,
      "arg_perigee_deg": 82.3387,
      "mean_anomaly_deg": 277.7739,
      "mean_motion_rev_day": 15.30196065
    },
    {
      "epoch": "2026-04-17T14:29:58.013088Z",
      "apogee_km": 476.0284712260236,
      "perigee_km": 474.4882391538986,
      "latitude_deg": -9.65873980716786e-06,
      "longitude_deg": 168.78145794268914,
      "height_km": 476.1001104066296,
      "semi_major_axis_km": 6853.39535518996,
      "eccentricity": 0.00011237,
      "inclination_deg": 53.1601,
      "raan_deg": 232.0083,
      "arg_perigee_deg": 85.7904,
      "mean_anomaly_deg": 274.3225,
      "mean_motion_rev_day": 15.30185503
    },
    {
      "epoch": "2026-04-18T14:00:45.344160Z",
      "apogee_km": 476.0224941356437,
      "perigee_km": 474.4393661437816,
      "latitude_deg": -5.33137138402253e-06,
      "longitude_deg": 170.56729816433767,
      "height_km": 476.1403964338131,
      "semi_major_axis_km": 6853.367930139712,
      "eccentricity": 0.0001155,
      "inclination_deg": 53.1604,
      "raan_deg": 227.457,
      "arg_perigee_deg": 90.8102,
      "mean_anomaly_deg": 269.3031,
      "mean_motion_rev_day": 15.30194688
    },
    {
      "epoch": "2026-04-19T13:31:34.136256Z",
      "apogee_km": 476.1419057535959,
      "perigee_km": 474.39565796037914,
      "latitude_deg": 2.468970797450837e-07,
      "longitude_deg": 172.3468338851125,
      "height_km": 476.3360867198945,
      "semi_major_axis_km": 6853.405781856987,
      "eccentricity": 0.0001274,
      "inclination_deg": 53.1611,
      "raan_deg": 222.9055,
      "arg_perigee_deg": 101.1668,
      "mean_anomaly_deg": 258.9476,
      "mean_motion_rev_day": 15.30182011
    },
    {
      "epoch": "2026-04-20T06:46:09.315264Z",
      "apogee_km": 476.1290619513002,
      "perigee_km": 474.4047455291202,
      "latitude_deg": 2.5340643500793857e-06,
      "longitude_deg": -90.34499395433775,
      "height_km": 476.33906321492526,
      "semi_major_axis_km": 6853.40390374021,
      "eccentricity": 0.0001258,
      "inclination_deg": 53.1613,
      "raan_deg": 219.5684,
      "arg_perigee_deg": 101.6368,
      "mean_anomaly_deg": 258.4774,
      "mean_motion_rev_day": 15.3018264
    },
    {
      "epoch": "2026-04-21T00:00:43.975872Z",
      "apogee_km": 476.20711058764755,
      "perigee_km": 474.3758744944398,
      "latitude_deg": 5.5318454390299694e-05,
      "longitude_deg": 6.966381324396161,
      "height_km": 476.52442113112926,
      "semi_major_axis_km": 6853.428492541043,
      "eccentricity": 0.0001336,
      "inclination_deg": 53.1613,
      "raan_deg": 216.2323,
      "arg_perigee_deg": 111.4413,
      "mean_anomaly_deg": 248.6731,
      "mean_motion_rev_day": 15.30174405
    },
    {
      "epoch": "2026-04-22T13:38:00.738240Z",
      "apogee_km": 476.1285287346327,
      "perigee_km": 474.33705787066356,
      "latitude_deg": -2.9662245992942672e-05,
      "longitude_deg": 153.81791798506953,
      "height_km": 475.8788093914511,
      "semi_major_axis_km": 6853.369793302648,
      "eccentricity": 0.0001307,
      "inclination_deg": 53.1599,
      "raan_deg": 208.9488,
      "arg_perigee_deg": 73.6551,
      "mean_anomaly_deg": 286.4593,
      "mean_motion_rev_day": 15.30194064
    },
    {
      "epoch": "2026-04-23T11:34:45.010560Z",
      "apogee_km": 475.76973166561584,
      "perigee_km": 474.5842454118783,
      "latitude_deg": 1.573573926880874e-05,
      "longitude_deg": 179.48590685376018,
      "height_km": 475.80475572523244,
      "semi_major_axis_km": 6853.313988538747,
      "eccentricity": 8.649e-05,
      "inclination_deg": 53.1604,
      "raan_deg": 204.7025,
      "arg_perigee_deg": 62.7906,
      "mean_anomaly_deg": 297.3183,
      "mean_motion_rev_day": 15.30212754
    },
    {
      "epoch": "2026-04-24T12:39:36.805248Z",
      "apogee_km": 475.9388111848284,
      "perigee_km": 474.5393517889879,
      "latitude_deg": -1.2930301871636584e-05,
      "longitude_deg": 157.38733061131666,
      "height_km": 475.9673659027536,
      "semi_major_axis_km": 6853.376081486907,
      "eccentricity": 0.0001021,
      "inclination_deg": 53.1603,
      "raan_deg": 199.8498,
      "arg_perigee_deg": 75.9221,
      "mean_anomaly_deg": 284.1893,
      "mean_motion_rev_day": 15.30191958
    },
    {
      "epoch": "2026-04-25T12:10:24.887136Z",
      "apogee_km": 476.0728357072285,
      "perigee_km": 474.42939323737846,
      "latitude_deg": -3.73585315562038e-05,
      "longitude_deg": 159.16991153487567,
      "height_km": 475.89809022881354,
      "semi_major_axis_km": 6853.388114472303,
      "eccentricity": 0.0001199,
      "inclination_deg": 53.1601,
      "raan_deg": 195.2984,
      "arg_perigee_deg": 72.1931,
      "mean_anomaly_deg": 287.92,
      "mean_motion_rev_day": 15.30187928
    }
  ]
}